KUIPER-00167            
1 65780U 25217U   26001.83336806  .00039468  00000+0  53871-2 0  9994
2 65780  51.8970 341.1853 0001128 121.0360 119.5237 14.78241721  3028
KUIPER-00168            
1 65781U 25217V   26001.83336806 -.01014636  00000+0 -51698-1 0  9992
2 65781  51.8843 327.4966 0001617  99.1846 235.5198 15.19248635  2444
KUIPER-00169            
1 65782U 25217W   26001.83336806 -.00674160  00000+0 -53742-1 0  9998
2 65782  51.8907 330.0759 0004592  90.9429  72.8253 15.02481453  5162
KUIPER-00170            
1 65783U 25217X   26001.83336806 -.00961902  00000+0 -10233+0 0  9998
2 65783  51.9161 334.0641 0007304  85.5932 271.2407 14.91407927  5137
KUIPER-00171            
1 65784U 25217Y   26001.83336806  .00135303  00000+0  92159-3 0  9996
2 65784  51.8539 313.8830 0011147  95.7536 302.3780 15.73870267  4461
KUIPER-00172            
1 65785U 25217Z   26001.34835293  .00028488  00000+0  13119-2 0  9990
2 65785  51.8789 330.7954 0005493  95.0896 265.0711 15.20070542 15048
KUIPER-00173            
1 65786U 25217AA  26001.83336806 -.01521196  00000+0 -11907+0 0  9998
2 65786  51.8878 330.2280 0001133 181.2408 151.5171 15.04189306  3259
KUIPER-00174            
1 65787U 25217AB  26001.83336806 -.01165524  00000+0 -61328-1 0  9992
2 65787  51.8799 327.6846 0001806  95.7618  81.6714 15.18070625  5851
